IRIDIUM 7               
1 24793U 97020B   24189.44638864  .00000534  00000+0  17987-3 0  9996
2 24793  86.3974 321.3460 0002165 100.0863 260.0578 14.35280612422430
IRIDIUM 5               
1 24795U 97020D   24189.59050395  .00002898  00000+0  27357-3 0  9998
2 24795  86.3909 241.7445 0118584 290.1669  68.6833 14.88118406434108
IRIDIUM 4               
1 24796U 97020E   24189.44017999  .00000552  00000+0  18251-3 0  9994
2 24796  86.3969 318.4540 0002012  95.6229 264.5197 14.36207601422972
IRIDIUM 914             
1 24836U 97030A   24189.41653021  .00000639  00000+0  19646-3 0  9994
2 24836  86.3953 328.0850 0000428  69.0004 291.1241 14.40073038557498
IRIDIUM 16              
1 24841U 97030F   24189.49166064  .00000636  00000+0  20394-3 0  9993
2 24841  86.4047 350.0803 0004164 104.4598 255.7062 14.37961804417456
IRIDIUM 911             
1 24842U 97030G   24189.50485390  .00000875  00000+0  23674-3 0  9991
2 24842  86.4472 349.1830 0014979 158.8432 201.3394 14.46617233425237
IRIDIUM 17              
1 24870U 97034B   24189.54320685  .00000580  00000+0  18885-3 0  9996
2 24870  86.3956  19.6413 0003662  77.1644 282.9962 14.37053499414079
IRIDIUM 920             
1 24871U 97034C   24189.49942271  .00000615  00000+0  18584-3 0  9997
2 24871  86.3983 359.6951 0013096 132.1937 228.0376 14.40771208416939
